OBJECT_NAME,OBJECT_ID,EPOCH,MEAN_MOTION,ECCENTRICITY,INCLINATION,RA_OF_ASC_NODE,ARG_OF_PERICENTER,MEAN_ANOMALY,EPHEMERIS_TYPE,CLASSIFICATION_TYPE,NORAD_CAT_ID,ELEMENT_SET_NO,REV_AT_EPOCH,BSTAR,MEAN_MOTION_DOT,MEAN_MOTION_DDOT
IRIDIUM 135,2017-083A,2026-06-26T22:03:35.163072,14.34217840,.00021858,86.3972,317.9460,92.7195,267.4251,0,U,43070,999,44554,.2810347E-5,.28E-6,0
IRIDIUM 138,2017-083B,2026-06-26T22:40:07.169952,14.34217950,.00022165,86.3986,317.6324,87.1897,272.9552,0,U,43071,999,44553,.13585629E-4,.58E-6,0
IRIDIUM 116,2017-083C,2026-06-26T21:54:27.138240,14.34218164,.00021661,86.3972,317.9346,101.8018,258.3421,0,U,43072,999,44556,.39582218E-4,.131E-5,0
IRIDIUM 130,2017-083D,2026-06-26T21:08:47.021856,14.34217208,.00020067,86.3979,318.2240,96.7214,263.4211,0,U,43073,999,44550,.23520373E-4,.86E-6,0
IRIDIUM 151,2017-083E,2026-06-26T22:12:43.174080,14.34217536,.00020866,86.3971,317.9874,94.3236,265.8198,0,U,43074,999,44553,-.4536671E-5,.7E-7,0
IRIDIUM 134,2017-083F,2026-06-26T21:27:03.068064,14.34218711,.00021282,86.3975,318.0086,93.9831,266.1608,0,U,43075,999,44549,.50759555E-4,.162E-5,0
IRIDIUM 137,2017-083G,2026-06-26T21:45:19.234368,14.34217348,.00023879,86.3975,318.0966,102.1089,258.0375,0,U,43076,999,44556,-.12674743E-4,-.16E-6,0
IRIDIUM 141,2017-083H,2026-06-26T21:36:11.166336,14.34217773,.00022009,86.3972,317.9291,91.4290,268.7158,0,U,43077,999,44556,.4132504E-5,.31E-6,0
IRIDIUM 153,2017-083J,2026-06-26T20:27:19.413792,14.34217501,.00020765,86.3963,286.4299,91.0575,269.0859,0,U,43078,999,44666,-.4087071E-5,.8E-7,0
IRIDIUM 131,2017-083K,2026-06-26T21:17:55.188384,14.34217551,.00022436,86.3976,318.1209,92.3182,267.8271,0,U,43079,999,44549,.2974656E-5,.28E-6,0
IRIDIUM 144,2018-030A,2026-06-26T18:55:59.125728,14.34216877,.00021771,86.3964,286.3851,98.0130,262.1313,0,U,43249,999,43151,.61576539E-4,.192E-5,0
IRIDIUM 149,2018-030B,2026-06-26T19:05:07.431360,14.34217757,.00022943,86.3963,286.3494,93.8415,266.3043,0,U,43250,999,43153,.1677287E-5,.24E-6,0
IRIDIUM 157,2018-030C,2026-06-26T19:32:31.325280,14.34218699,.00021961,86.3964,286.3949,94.5215,265.6231,0,U,43251,999,43151,.61957137E-4,.193E-5,0
IRIDIUM 140,2018-030D,2026-06-26T19:59:55.310784,14.34217807,.00021496,86.3964,286.3996,95.2613,264.8828,0,U,43252,999,43157,.65027565E-4,.202E-5,0
IRIDIUM 145,2018-030E,2026-06-26T19:41:39.313824,14.34218509,.00022069,86.3962,286.3770,102.8351,257.3091,0,U,43253,999,43150,.35517765E-4,.119E-5,0
IRIDIUM 146,2018-030F,2026-06-26T19:14:15.419040,14.34217832,.0002255,86.3964,286.3972,97.8458,262.2993,0,U,43254,999,43151,.20166609E-4,.76E-6,0
IRIDIUM 148,2018-030G,2026-06-26T20:09:03.422016,14.34217717,.00022249,86.3963,286.4247,96.0895,264.0555,0,U,43255,999,43155,-.939225E-6,.17E-6,0
IRIDIUM 142,2018-030H,2026-06-26T19:23:23.423136,14.34217687,.00022711,86.3961,286.3265,99.5478,260.5974,0,U,43256,999,43151,-.3484977E-5,.1E-6,0
IRIDIUM 150,2018-030J,2026-06-26T20:18:11.363040,14.34218144,.00021498,86.3965,286.4271,95.6215,264.5226,0,U,43257,999,43154,.37150815E-4,.124E-5,0
IRIDIUM 143,2018-030K,2026-06-26T19:50:47.393952,14.34218218,.00022085,86.3967,286.5280,98.4081,261.7365,0,U,43258,999,43147,.62414916E-4,.195E-5,0
IRIDIUM 161,2018-047C,2026-06-26T19:20:36.422304,14.43277622,.00025039,86.4491,84.4513,86.9970,273.1518,0,U,43478,999,42652,.81259229E-4,.294E-5,0
IRIDIUM 152,2018-047D,2026-06-26T19:11:30.178176,14.34218370,.00023105,86.3956,84.3135,82.6229,277.5229,0,U,43479,999,42386,.80244442E-4,.245E-5,0
IRIDIUM 147,2018-047E,2026-06-26T19:20:38.241024,14.34217695,.00020481,86.3955,84.3160,87.2141,272.9289,0,U,43480,999,42386,.1962658E-5,.25E-6,0
IRIDIUM 110,2018-047F,2026-06-26T19:29:46.307328,14.34217381,.00023558,86.3957,84.4056,78.2676,281.8784,0,U,43481,999,42385,-.9194497E-5,-.6E-7,0
IRIDIUM 162,2018-047G,2026-06-26T19:11:32.324352,14.43279056,.00022775,86.4481,84.3432,83.8422,276.3039,0,U,43482,999,42651,.84114271E-4,.303E-5,0
IRIDIUM 160,2018-061A,2026-06-26T21:32:42.483552,14.34217828,.00022539,86.3955,52.7369,85.5849,274.5604,0,U,43569,999,41476,.8826735E-5,.45E-6,0
IRIDIUM 166,2018-061B,2026-06-26T22:09:14.449824,14.34217491,.00020352,86.3948,52.6763,88.2408,271.9021,0,U,43570,999,41479,-.6330401E-5,.2E-7,0
IRIDIUM 158,2018-061C,2026-06-26T21:23:34.450944,14.34217586,.00021648,86.3951,52.6997,83.9684,276.1759,0,U,43571,999,41475,.21202409E-4,.79E-6,0
IRIDIUM 165,2018-061D,2026-06-26T22:00:06.437952,14.34217543,.0002144,86.3954,52.7357,89.3467,270.7974,0,U,43572,999,41478,.21280576E-4,.79E-6,0
IRIDIUM 155,2018-061E,2026-06-26T22:45:46.427328,14.34218132,.00020651,86.3951,52.5910,84.8140,275.3291,0,U,43573,999,41475,.24412087E-4,.88E-6,0
