IRIDIUM 135             
1 43070U 17083A   26177.91915698  .00000028  00000+0  28103-5 0  9992
2 43070  86.3972 317.9460 0002185  92.7195 267.4251 14.34217840445543
IRIDIUM 138             
1 43071U 17083B   26177.94452743  .00000058  00000+0  13586-4 0  9994
2 43071  86.3986 317.6324 0002216  87.1897 272.9552 14.34217950445533
IRIDIUM 116             
1 43072U 17083C   26177.91281410  .00000131  00000+0  39582-4 0  9999
2 43072  86.3972 317.9346 0002166 101.8018 258.3421 14.34218164445563
IRIDIUM 130             
1 43073U 17083D   26177.88109979  .00000086  00000+0  23520-4 0  9999
2 43073  86.3979 318.2240 0002006  96.7214 263.4211 14.34217208445507
IRIDIUM 151             
1 43074U 17083E   26177.92549970  .00000007  00000+0 -45367-5 0  9992
2 43074  86.3971 317.9874 0002086  94.3236 265.8198 14.34217536445532
IRIDIUM 134             
1 43075U 17083F   26177.89378551  .00000162  00000+0  50760-4 0  9997
2 43075  86.3975 318.0086 0002128  93.9831 266.1608 14.34218711445498
IRIDIUM 137             
1 43076U 17083G   26177.90647262 -.00000016  00000+0 -12675-4 0  9991
2 43076  86.3975 318.0966 0002387 102.1089 258.0375 14.34217348445565
IRIDIUM 141             
1 43077U 17083H   26177.90012924  .00000031  00000+0  41325-5 0  9993
2 43077  86.3972 317.9291 0002200  91.4290 268.7158 14.34217773445569
IRIDIUM 153             
1 43078U 17083J   26177.85230803  .00000008  00000+0 -40871-5 0  9996
2 43078  86.3963 286.4299 0002076  91.0575 269.0859 14.34217501446664
IRIDIUM 131             
1 43079U 17083K   26177.88744431  .00000028  00000+0  29747-5 0  9997
2 43079  86.3976 318.1209 0002243  92.3182 267.8271 14.34217551445496
IRIDIUM 144             
1 43249U 18030A   26177.78887877  .00000192  00000+0  61577-4 0  9998
2 43249  86.3964 286.3851 0002177  98.0130 262.1313 14.34216877431516
IRIDIUM 149             
1 43250U 18030B   26177.79522490  .00000024  00000+0  16773-5 0  9991
2 43250  86.3963 286.3494 0002294  93.8415 266.3043 14.34217757431535
IRIDIUM 157             
1 43251U 18030C   26177.81425145  .00000193  00000+0  61957-4 0  9994
2 43251  86.3964 286.3949 0002196  94.5215 265.6231 14.34218699431514
IRIDIUM 140             
1 43252U 18030D   26177.83327906  .00000202  00000+0  65028-4 0  9997
2 43252  86.3964 286.3996 0002149  95.2613 264.8828 14.34217807431574
IRIDIUM 145             
1 43253U 18030E   26177.82059391  .00000119  00000+0  35518-4 0  9995
2 43253  86.3962 286.3770 0002206 102.8351 257.3091 14.34218509431503
IRIDIUM 146             
1 43254U 18030F   26177.80156735  .00000076  00000+0  20167-4 0  9990
2 43254  86.3964 286.3972 0002255  97.8458 262.2993 14.34217832431510
IRIDIUM 148             
1 43255U 18030G   26177.83962294  .00000017  00000+0 -93922-6 0  9996
2 43255  86.3963 286.4247 0002224  96.0895 264.0555 14.34217717431558
IRIDIUM 142             
1 43256U 18030H   26177.80790999  .00000010  00000+0 -34850-5 0  9992
2 43256  86.3961 286.3265 0002271  99.5478 260.5974 14.34217687431511
IRIDIUM 150             
1 43257U 18030J   26177.84596485  .00000124  00000+0  37151-4 0  9992
2 43257  86.3965 286.4271 0002149  95.6215 264.5226 14.34218144431540
IRIDIUM 143             
1 43258U 18030K   26177.82693743  .00000195  00000+0  62415-4 0  9995
2 43258  86.3967 286.5280 0002208  98.4081 261.7365 14.34218218431479
IRIDIUM 161             
1 43478U 18047C   26177.80597711  .00000294  00000+0  81259-4 0  9990
2 43478  86.4491  84.4513 0002503  86.9970 273.1518 14.43277622426528
IRIDIUM 152             
1 43479U 18047D   26177.79965484  .00000245  00000+0  80244-4 0  9994
2 43479  86.3956  84.3135 0002310  82.6229 277.5229 14.34218370423865
IRIDIUM 147             
1 43480U 18047E   26177.80599816  .00000025  00000+0  19627-5 0  9994
2 43480  86.3955  84.3160 0002048  87.2141 272.9289 14.34217695423860
IRIDIUM 110             
1 43481U 18047F   26177.81234152 -.00000006  00000+0 -91945-5 0  9999
2 43481  86.3957  84.4056 0002355  78.2676 281.8784 14.34217381423852
IRIDIUM 162             
1 43482U 18047G   26177.79967968  .00000303  00000+0  84114-4 0  9992
2 43482  86.4481  84.3432 0002277  83.8422 276.3039 14.43279056426512
IRIDIUM 160             
1 43569U 18061A   26177.89771393  .00000045  00000+0  88267-5 0  9997
2 43569  86.3955  52.7369 0002253  85.5849 274.5604 14.34217828414768
IRIDIUM 166             
1 43570U 18061B   26177.92308391  .00000002  00000+0 -63304-5 0  9996
2 43570  86.3948  52.6763 0002035  88.2408 271.9021 14.34217491414791
IRIDIUM 158             
1 43571U 18061C   26177.89137096  .00000079  00000+0  21202-4 0  9998
2 43571  86.3951  52.6997 0002164  83.9684 276.1759 14.34217586414752
IRIDIUM 165             
1 43572U 18061D   26177.91674118  .00000079  00000+0  21281-4 0  9990
2 43572  86.3954  52.7357 0002144  89.3467 270.7974 14.34217543414789
IRIDIUM 155             
1 43573U 18061E   26177.94845402  .00000088  00000+0  24412-4 0  9999
2 43573  86.3951  52.5910 0002065  84.8140 275.3291 14.34218132414755
